CSS (TIANHE)            
1 48274U 21035A   23328.79561867  .00044633  00000+0  48765-3 0  9995
2 48274  41.4713 257.9702 0006662 217.3204 142.7174 15.62504494146948
